FENGYUN 3A              
1 32958U 08026A   26064.71759741  .00000161  00000+0  97058-4 0  9992
2 32958  98.6793   7.5396 0009773  68.5046 291.7172 14.19544924920728
HUANJING 1A (HJ-1A)     
1 33320U 08041A   26064.79116340  .00002955  00000+0  36229-3 0  9998
2 33320  97.6628  54.6825 0020568 115.6283 244.7059 14.83705464943074
HUANJING 1B (HJ-1B)     
1 33321U 08041B   26064.78283139  .00001079  00000+0  13726-3 0  9992
2 33321  97.6472  58.1482 0036789 160.4737 199.7896 14.83088945943081
SHIJIAN-6 03A (SJ-6 03A)
1 33408U 08053A   26064.72806498  .00007148  00000+0  37522-3 0  9997
2 33408  97.8536  94.4726 0011966  16.9617 343.2012 15.15994053947280
SHIJIAN-6 03B (SJ-6 03B)
1 33409U 08053B   26064.78595925  .00003594  00000+0  26480-3 0  9996
2 33409  97.8663  82.9489 0020359  33.5621 326.6889 15.03838006947207
CHUANGXIN 1-02 (CX-1-02)
1 33434U 08056B   26064.75226353  .00000063  00000+0  41329-4 0  9998
2 33434  98.6250  91.9985 0015437  84.6610 275.6333 14.30129318903839
STARS (KUKAI)           
1 33498U 09002G   26064.70218263  .00006745  00000+0  62356-3 0  9991
2 33498  98.1461   7.9135 0009255 143.3588 216.8266 14.94885666923019
KKS-1 (KISEKI)          
1 33499U 09002H   26064.75346277  .00002513  00000+0  31744-3 0  9990
2 33499  98.1189 345.5891 0006426 266.4349  93.6129 14.82811940920866
NOAA 19                 
1 33591U 09005A   26064.70042618  .00000077  00000+0  65110-4 0  9991
2 33591  98.9614 135.4647 0013045 326.6281  33.4067 14.13455946879864
UK-DMC 2                
1 35683U 09041C   26064.70366882  .00001711  00000+0  25668-3 0  9996
2 35683  97.8647 202.3144 0001084  90.4256 269.7078 14.75842383891308
METEOR-M 1              
1 35865U 09049A   26064.65436161  .00000172  00000+0  95739-4 0  9995
2 35865  98.7268  27.9406 0001234 233.5910 126.5154 14.23129296854527
OCEANSAT-2              
1 35931U 09051A   26064.75879575  .00000084  00000+0  82917-4 0  9999
2 35931  98.2273  61.9663 0017066 162.9543 197.2200 13.99636288864863
SWISSCUBE               
1 35932U 09051B   26064.71396288  .00001809  00000+0  36858-3 0  9999
2 35932  98.4101 330.7863 0006806 164.5501 195.5909 14.62247075874037
BEESAT-1                
1 35933U 09051C   26064.67072876  .00001533  00000+0  31878-3 0  9990
2 35933  98.4032 330.5905 0005030 175.5274 184.5972 14.61522598874069
ITUPSAT1                
1 35935U 09051E   26064.70852493  .00001387  00000+0  29735-3 0  9993
2 35935  98.4119 329.9276 0006991 190.8794 169.2255 14.60258403873630
DMSP 5D-3 F18 (USA 210) 
1 35951U 09057A   26064.75210126  .00000355  00000+0  20685-3 0  9992
2 35951  98.8958  45.7948 0010901 179.4396 180.6791 14.14833056844967
PROBA-2                 
1 36037U 09059B   26064.73096280  .00000450  00000+0  11549-3 0  9996
2 36037  98.2427 249.5194 0012172 237.4112 122.5910 14.54788141866485
